BEIDOU-2 IGSO-1 (C06)   
1 36828U 10036A   25003.85108792 -.00000074  00000+0  00000+0 0  9997
2 36828  54.2660 167.7472 0043629 206.1427 143.7301  1.00272171 52784
BEIDOU-2 G4 (C04)       
1 37210U 10057A   25004.60707440 -.00000099  00000+0  00000+0 0  9992
2 37210   2.3351  70.3349 0009341 191.6392 221.0453  1.00270484 51990
BEIDOU-2 IGSO-2 (C07)   
1 37256U 10068A   25003.69652596 -.00000187  00000+0  00000+0 0  9991
2 37256  48.5096 278.3727 0039456 215.3524 327.8232  1.00288641 51487
BEIDOU-2 IGSO-3 (C08)   
1 37384U 11013A   25004.55347538 -.00000164  00000+0  00000+0 0  9992
2 37384  61.6444  45.1732 0030169 184.1536 179.9220  1.00258050 50366
BEIDOU-2 IGSO-4 (C09)   
1 37763U 11038A   25004.40925365  .00000046  00000+0  00000+0 0  9992
2 37763  54.5705 170.3962 0131665 228.4633 308.5360  1.00265044 49349
BEIDOU-2 IGSO-5 (C10)   
1 37948U 11073A   25003.72214905 -.00000142  00000+0  00000+0 0  9999
2 37948  48.6453 278.0698 0101616 220.9196 319.7702  1.00286816 47829
BEIDOU-2 G5 (C05)       
1 38091U 12008A   25004.54461358  .00000071  00000+0  00000+0 0  9995
2 38091   2.2558  71.1396 0012932 232.1000  55.9153  1.00270236 47063
BEIDOU-2 M3 (C11)       
1 38250U 12018A   25004.28952387 -.00000062  00000+0  00000+0 0  9992
2 38250  56.1952 322.6356 0024615 270.7292  88.9914  1.86233502 86443
BEIDOU-2 M4 (C12)       
1 38251U 12018B   25004.22033207 -.00000061  00000+0  00000+0 0  9997
2 38251  56.1003 321.8942 0015576 275.0997  84.7256  1.86231963 86092
BEIDOU-2 M6 (C14)       
1 38775U 12050B   25003.93017231 -.00000015  00000+0  00000+0 0  9999
2 38775  56.0788  80.4626 0011850 335.5791  24.4185  1.86230834 83459
BEIDOU-2 G6 (C02)       
1 38953U 12059A   25004.54965263 -.00000162  00000+0  00000+0 0  9994
2 38953   3.0740  78.8761 0008400 288.7235  18.6570  1.00272761 44605
BEIDOU-3S IGSO-1S (C31) 
1 40549U 15019A   25003.78677547 -.00000170  00000+0  00000+0 0  9996
2 40549  50.1991 301.8149 0034272 198.1570 341.9537  1.00259154 35764
BEIDOU-3S M2S (C58)     
1 40748U 15037A   25003.34752904 -.00000059  00000+0  00000+0 0  9996
2 40748  55.3268 320.2187 0012047 266.7777  93.0879  1.86228996 64257
BEIDOU-3S M1S (C57)     
1 40749U 15037B   25004.15807678 -.00000061  00000+0  00000+0 0  9999
2 40749  55.3288 320.1777 0004627 332.7341  27.2461  1.86227425 64274
BEIDOU-3S IGSO-2S (C56) 
1 40938U 15053A   25004.64199681 -.00000111  00000+0  00000+0 0  9995
2 40938  50.0416 265.0471 0051595 187.9322 337.7174  1.00259529 34051
BEIDOU-2 IGSO-6 (C13)   
1 41434U 16021A   25004.55251969 -.00000150  00000+0  00000+0 0  9994
2 41434  59.4732  43.3213 0055237 227.6736 129.3176  1.00275255 32178
BEIDOU-2 G7 (C03)       
1 41586U 16037A   25004.64749655 -.00000340  00000+0  00000+0 0  9994
2 41586   1.8622  67.7663 0007996 341.3489  39.0096  1.00268191  1593
BEIDOU-3 M1 (C19)       
1 43001U 17069A   25004.23294219 -.00000017  00000+0  00000+0 0  9991
2 43001  56.2280  80.5752 0010063 296.7133  63.2369  1.86231010 48756
BEIDOU-3 M2 (C20)       
1 43002U 17069B   25003.63364098 -.00000014  00000+0  00000+0 0  9995
2 43002  56.2272  80.6311 0007262 319.9004  40.0997  1.86230834 48733
BEIDOU-3 M7 (C27)       
1 43107U 18003A   25003.38084374 -.00000060  00000+0  00000+0 0  9999
2 43107  54.7854 320.7205 0003123  53.7077 306.3244  1.86232251 47493
BEIDOU-3 M8 (C28)       
1 43108U 18003B   25003.32293400 -.00000060  00000+0  00000+0 0  9996
2 43108  54.7783 320.7069 0004727 276.0897  83.8597  1.86230733 47495
BEIDOU-3 M4 (C22)       
1 43207U 18018A   25003.22717217 -.00000012  00000+0  00000+0 0  9995
2 43207  56.1860  80.6910 0004296 349.2879  10.7565  1.86230945 46878
BEIDOU-3 M3 (C21)       
1 43208U 18018B   25004.36765216 -.00000018  00000+0  00000+0 0  9990
2 43208  56.1864  80.6572 0007491 307.0540  52.9303  1.86231107 46895
BEIDOU-3 M9 (C29)       
1 43245U 18029A   25003.51313932 -.00000059  00000+0  00000+0 0  9998
2 43245  54.6625 318.4046 0001927 292.4568  67.5282  1.86232339 46039
BEIDOU-3 M10 (C30)      
1 43246U 18029B   25001.29474745 -.00000059  00000+0  00000+0 0  9992
2 43246  54.6616 318.5082 0004328 350.7256   9.2660  1.86232558 45980
BEIDOU-2 IGSO-7 (C16)   
1 43539U 18057A   25004.26934884 -.00000072  00000+0  00000+0 0  9998
2 43539  55.1588 167.6335 0079414 231.9643 271.6384  1.00249912 23837
BEIDOU-3 M5 (C23)       
1 43581U 18062A   25003.13170658  .00000100  00000+0  00000+0 0  9998
2 43581  54.1129 200.3274 0001720 354.8542   5.1797  1.86228555 43765
BEIDOU-3 M6 (C24)       
1 43582U 18062B   25004.07038777  .00000103  00000+0  00000+0 0  9991
2 43582  54.1124 200.2849 0007434  45.1182 314.9740  1.86229469 43782
BEIDOU-3 M12 (C26)      
1 43602U 18067A   25004.00466653  .00000103  00000+0  00000+0 0  9990
2 43602  54.2044 198.9870 0008662  36.9115 323.1776  1.86227642 43267
BEIDOU-3 M11 (C25)      
1 43603U 18067B   25004.13825190  .00000104  00000+0  00000+0 0  9991
2 43603  54.2020 198.9472 0005239  33.6851 326.3773  1.86227171 43290
BEIDOU-3 M13 (C32)      
1 43622U 18072A   25004.63569060 -.00000020  00000+0  00000+0 0  9992
2 43622  56.1597  80.1693 0006837 291.7629  68.2171  1.86230917 42816
BEIDOU-3 M14 (C33)      
1 43623U 18072B   25003.96421115 -.00000016  00000+0  00000+0 0  9991
2 43623  56.1610  80.1849 0004046 316.7095  43.3126  1.86230896 42798
BEIDOU-3 M16 (C35)      
1 43647U 18078A   25004.12548217 -.00000061  00000+0  00000+0 0  9995
2 43647  54.5582 318.4648 0007559  11.2995 348.7234  1.86232151 42301
BEIDOU-3 M15 (C34)      
1 43648U 18078B   25004.25465088 -.00000062  00000+0  00000+0 0  9995
2 43648  54.5538 318.4624 0004339  10.8382 349.1774  1.86231949 42325
BEIDOU-3 G1 (C59)       
1 43683U 18085A   25004.56785632 -.00000266  00000+0  00000+0 0  9992
2 43683   2.6925 102.6714 0000904  46.9807 299.1413  1.00265736 22753
BEIDOU-3 M17 (C36)      
1 43706U 18093A   25001.18611939  .00000105  00000+0  00000+0 0  9991
2 43706  54.1959 200.3471 0006106 300.6218  59.3661  1.86228339 41631
BEIDOU-3 M18 (C37)      
1 43707U 18093B   25004.27153150  .00000104  00000+0  00000+0 0  9990
2 43707  54.1975 200.2339 0006003 344.4361  15.5767  1.86229679 41687
BEIDOU-3 IGSO-1 (C38)   
1 44204U 19023A   25003.76876677 -.00000200  00000+0  00000+0 0  9994
2 44204  57.9359  43.1288 0023775 223.3894 231.5373  1.00293969  1908
BEIDOU-2 G8 (C01)       
1 44231U 19027A   25003.52273420 -.00000236  00000+0  00000+0 0  9998
2 44231   1.9759  74.8611 0004850 211.5905 149.4893  1.00265027 20771
BEIDOU-3 IGSO-2 (C39)   
1 44337U 19035A   25004.32213181 -.00000085  00000+0  00000+0 0  9993
2 44337  55.1974 163.5041 0035769 197.1374 337.6837  1.00276524 20361
BEIDOU-3 M24 (C46)      
1 44542U 19061A   25003.26782412  .00000101  00000+0  00000+0 0  9998
2 44542  54.4235 200.6021 0009062  19.3731 340.6970  1.86229103 35926
BEIDOU-3 M23 (C45)      
1 44543U 19061B   25004.24290949  .00000104  00000+0  00000+0 0  9990
2 44543  54.4219 200.5377 0005634  19.5913 186.8510  1.86229275 35949
BEIDOU-3 IGSO-3 (C40)   
1 44709U 19073A   25004.17995067 -.00000185  00000+0  00000+0 0  9992
2 44709  55.7076 286.5922 0041158 184.3525 175.6701  1.00295814 19150
BEIDOU-3 M22 (C44)      
1 44793U 19078A   25004.18571930 -.00000062  00000+0  00000+0 0  9994
2 44793  54.4053 318.3702 0006304  15.1150 344.9100  1.86231820 34795
BEIDOU-3 M21 (C43)      
1 44794U 19078B   25004.31542449 -.00000062  00000+0  00000+0 0  9993
2 44794  54.3788 318.3374 0004582   4.3244 355.6860  1.86227569 34804
BEIDOU-3 M19 (C41)      
1 44864U 19090A   25004.56016517 -.00000020  00000+0  00000+0 0  9998
2 44864  56.0933  80.3321 0018457 280.2970  75.9447  1.86231267 34384
BEIDOU-3 M20 (C42)      
1 44865U 19090B   25004.42641569 -.00000019  00000+0  00000+0 0  9993
2 44865  56.0948  80.3702 0015783 292.3512  63.9095  1.86231249 34363
BEIDOU-3 G2 (C60)       
1 45344U 20017A   25004.54887071 -.00000128  00000+0  00000+0 0  9991
2 45344   2.5993  36.4301 0004224 235.1739 110.3905  1.00270225 17959
BEIDOU-3 G3 (C61)       
1 45807U 20040A   25004.64749653 -.00000339  00000+0  00000+0 0  9999
2 45807   1.1826  58.6728 0003960 303.6704  85.7105  1.00265115 16779
BEIDOU-3 G4 (C62)       
1 56564U 23066A   25004.51976958 -.00000098  00000+0  00000+0 0  9990
2 56564   1.6231 289.3694 0003216 265.6123 256.4236  1.00269377  6097
BEIDOU-3 M28 (C50)      
1 58654U 23207A   25004.39813449 -.00000020  00000+0  00000+0 0  9995
2 58654  55.2796  80.2131 0003285 266.1775  93.8372  1.86231894  6999
BEIDOU-3 M26 (C48)      
1 58655U 23207B   25003.66062346 -.00000016  00000+0  00000+0 0  9992
2 58655  55.2810  80.2241 0004472 253.0278 106.9762  1.86231359  6963
